[
  {
    "OBJECT_NAME": "ISS (ZARYA)",
    "OBJECT_ID": "1998-067A",
    "EPOCH": "2024-03-04T10:34:41.4264",
    "MEAN_MOTION": 15.49600003,
    "ECCENTRICITY": 0.0006703,
    "INCLINATION": 51.6416,
    "RA_OF_ASC_NODE": 247.4627,
    "ARG_OF_PERICENTER": 130.536,
    "MEAN_ANOMALY": 325.0288,
    "EPHEMERIS_TYPE": 0,
    "CLASSIFICATION_TYPE": "U",
    "NORAD_CAT_ID": 25544,
    "ELEMENT_SET_NO": 999,
    "REV_AT_EPOCH": 56353,
    "BSTAR": 0.00021071,
    "MEAN_MOTION_DOT": -1.6e-07,
    "MEAN_MOTION_DDOT": 0.0
  }
]
